ONEWEB-0033             
1 45142U 20008M   25289.70147999 -.00000245  00000+0 -73882-3 0  9991
2 45142  87.8760  84.8290 0001637  98.5424 261.5889 13.10372474276325
ONEWEB-0035             
1 45143U 20008N   25289.50314042  .00000694  00000+0  19520-2 0  9999
2 45143  87.8750  84.8697 0001726  96.3905 263.7419 13.10371916276025
ONEWEB-0036             
1 45144U 20008P   25289.49317728  .00000548  00000+0  15325-2 0  9999
2 45144  87.8765  84.8242 0001442  84.1290 276.0002 13.10374673276450
ONEWEB-0038             
1 45145U 20008Q   25289.62959542  .00000119  00000+0  30064-3 0  9993
2 45145  87.8825  69.5652 0001824 157.4521 202.6687 13.11415926278407
ONEWEB-0039             
1 45146U 20008R   25289.70481099 -.00000338  00000+0 -10042-2 0  9998
2 45146  87.8763  84.7977 0001102  87.7664 272.3589 13.10376224276274
ONEWEB-0040             
1 45147U 20008S   25289.69816163 -.00000491  00000+0 -14432-2 0  9998
2 45147  87.8755  84.8285 0001549  93.6749 266.4556 13.10373825275972
ONEWEB-0043             
1 45149U 20008U   25289.69981156 -.00000654  00000+0 -19088-2 0  9998
2 45149  87.8752  84.8098 0001310  79.3529 280.7746 13.10374115276295
ONEWEB-0044             
1 45150U 20008V   25289.49899154  .00000604  00000+0  16938-2 0  9998
2 45150  87.8749  84.8408 0001434  85.3975 274.7316 13.10372366276569
